<?xml version="1.0" encoding="UTF-8"?>
<ndm xmlns:xsi="http://www.w3.org/2001/XMLSchema-instance" xsi:noNamespaceSchemaLocation="https://sanaregistry.org/r/ndmxml_unqualified/ndmxml-2.0.0-master-2.0.xsd">
<omm id="CCSDS_OMM_VERS" version="2.0">
<header><CREATION_DATE/><ORIGINATOR/></header><body><segment><metadata><OBJECT_NAME>ONEWEB-0687</OBJECT_NAME><OBJECT_ID>2024-188B</OBJECT_ID><CENTER_NAME>EARTH</CENTER_NAME><REF_FRAME>TEME</REF_FRAME><TIME_SYSTEM>UTC</TIME_SYSTEM><MEAN_ELEMENT_THEORY>SGP4</MEAN_ELEMENT_THEORY></metadata><data><meanElements><EPOCH>2026-01-12T02:32:40.094304</EPOCH><MEAN_MOTION>13.17649703</MEAN_MOTION><ECCENTRICITY>.00022446</ECCENTRICITY><INCLINATION>87.9074</INCLINATION><RA_OF_ASC_NODE>36.9172</RA_OF_ASC_NODE><ARG_OF_PERICENTER>105.8027</ARG_OF_PERICENTER><MEAN_ANOMALY>254.3352</MEAN_ANOMALY></meanElements><tleParameters><EPHEMERIS_TYPE>0</EPHEMERIS_TYPE><CLASSIFICATION_TYPE>U</CLASSIFICATION_TYPE><NORAD_CAT_ID>61595</NORAD_CAT_ID><ELEMENT_SET_NO>999</ELEMENT_SET_NO><REV_AT_EPOCH>6534</REV_AT_EPOCH><BSTAR>.91564263E-4</BSTAR><MEAN_MOTION_DOT>.48E-6</MEAN_MOTION_DOT><MEAN_MOTION_DDOT>0</MEAN_MOTION_DDOT></tleParameters></data></segment></body></omm>
<omm id="CCSDS_OMM_VERS" version="2.0">
<header><CREATION_DATE/><ORIGINATOR/></header><body><segment><metadata><OBJECT_NAME>ONEWEB-0688</OBJECT_NAME><OBJECT_ID>2024-188C</OBJECT_ID><CENTER_NAME>EARTH</CENTER_NAME><REF_FRAME>TEME</REF_FRAME><TIME_SYSTEM>UTC</TIME_SYSTEM><MEAN_ELEMENT_THEORY>SGP4</MEAN_ELEMENT_THEORY></metadata><data><meanElements><EPOCH>2026-01-12T01:24:37.571616</EPOCH><MEAN_MOTION>13.17650399</MEAN_MOTION><ECCENTRICITY>.00030996</ECCENTRICITY><INCLINATION>87.9074</INCLINATION><RA_OF_ASC_NODE>36.9266</RA_OF_ASC_NODE><ARG_OF_PERICENTER>93.1003</ARG_OF_PERICENTER><MEAN_ANOMALY>267.0484</MEAN_ANOMALY></meanElements><tleParameters><EPHEMERIS_TYPE>0</EPHEMERIS_TYPE><CLASSIFICATION_TYPE>U</CLASSIFICATION_TYPE><NORAD_CAT_ID>61596</NORAD_CAT_ID><ELEMENT_SET_NO>999</ELEMENT_SET_NO><REV_AT_EPOCH>6533</REV_AT_EPOCH><BSTAR>.20868456E-3</BSTAR><MEAN_MOTION_DOT>.94E-6</MEAN_MOTION_DOT><MEAN_MOTION_DDOT>0</MEAN_MOTION_DDOT></tleParameters></data></segment></body></omm>
<omm id="CCSDS_OMM_VERS" version="2.0">
<header><CREATION_DATE/><ORIGINATOR/></header><body><segment><metadata><OBJECT_NAME>ONEWEB-0689</OBJECT_NAME><OBJECT_ID>2024-188D</OBJECT_ID><CENTER_NAME>EARTH</CENTER_NAME><REF_FRAME>TEME</REF_FRAME><TIME_SYSTEM>UTC</TIME_SYSTEM><MEAN_ELEMENT_THEORY>SGP4</MEAN_ELEMENT_THEORY></metadata><data><meanElements><EPOCH>2026-01-12T03:56:00.485664</EPOCH><MEAN_MOTION>13.11418410</MEAN_MOTION><ECCENTRICITY>.00018423</ECCENTRICITY><INCLINATION>87.8828</INCLINATION><RA_OF_ASC_NODE>52.0935</RA_OF_ASC_NODE><ARG_OF_PERICENTER>107.2998</ARG_OF_PERICENTER><MEAN_ANOMALY>252.8332</MEAN_ANOMALY></meanElements><tleParameters><EPHEMERIS_TYPE>0</EPHEMERIS_TYPE><CLASSIFICATION_TYPE>U</CLASSIFICATION_TYPE><NORAD_CAT_ID>61597</NORAD_CAT_ID><ELEMENT_SET_NO>999</ELEMENT_SET_NO><REV_AT_EPOCH>6400</REV_AT_EPOCH><BSTAR>.15098256E-2</BSTAR><MEAN_MOTION_DOT>.548E-5</MEAN_MOTION_DOT><MEAN_MOTION_DDOT>0</MEAN_MOTION_DDOT></tleParameters></data></segment></body></omm>
<omm id="CCSDS_OMM_VERS" version="2.0">
<header><CREATION_DATE/><ORIGINATOR/></header><body><segment><metadata><OBJECT_NAME>ONEWEB-0690</OBJECT_NAME><OBJECT_ID>2024-188E</OBJECT_ID><CENTER_NAME>EARTH</CENTER_NAME><REF_FRAME>TEME</REF_FRAME><TIME_SYSTEM>UTC</TIME_SYSTEM><MEAN_ELEMENT_THEORY>SGP4</MEAN_ELEMENT_THEORY></metadata><data><meanElements><EPOCH>2026-01-12T04:10:39.988416</EPOCH><MEAN_MOTION>13.11416277</MEAN_MOTION><ECCENTRICITY>.00016788</ECCENTRICITY><INCLINATION>87.8838</INCLINATION><RA_OF_ASC_NODE>52.1104</RA_OF_ASC_NODE><ARG_OF_PERICENTER>73.5455</ARG_OF_PERICENTER><MEAN_ANOMALY>286.5857</MEAN_ANOMALY></meanElements><tleParameters><EPHEMERIS_TYPE>0</EPHEMERIS_TYPE><CLASSIFICATION_TYPE>U</CLASSIFICATION_TYPE><NORAD_CAT_ID>61598</NORAD_CAT_ID><ELEMENT_SET_NO>999</ELEMENT_SET_NO><REV_AT_EPOCH>6418</REV_AT_EPOCH><BSTAR>.17511378E-2</BSTAR><MEAN_MOTION_DOT>.633E-5</MEAN_MOTION_DOT><MEAN_MOTION_DDOT>0</MEAN_MOTION_DDOT></tleParameters></data></segment></body></omm>
<omm id="CCSDS_OMM_VERS" version="2.0">
<header><CREATION_DATE/><ORIGINATOR/></header><body><segment><metadata><OBJECT_NAME>ONEWEB-0691</OBJECT_NAME><OBJECT_ID>2024-188F</OBJECT_ID><CENTER_NAME>EARTH</CENTER_NAME><REF_FRAME>TEME</REF_FRAME><TIME_SYSTEM>UTC</TIME_SYSTEM><MEAN_ELEMENT_THEORY>SGP4</MEAN_ELEMENT_THEORY></metadata><data><meanElements><EPOCH>2026-01-12T04:03:20.654784</EPOCH><MEAN_MOTION>13.11417641</MEAN_MOTION><ECCENTRICITY>.00022577</ECCENTRICITY><INCLINATION>87.8836</INCLINATION><RA_OF_ASC_NODE>52.0089</RA_OF_ASC_NODE><ARG_OF_PERICENTER>97.8870</ARG_OF_PERICENTER><MEAN_ANOMALY>262.2514</MEAN_ANOMALY></meanElements><tleParameters><EPHEMERIS_TYPE>0</EPHEMERIS_TYPE><CLASSIFICATION_TYPE>U</CLASSIFICATION_TYPE><NORAD_CAT_ID>61599</NORAD_CAT_ID><ELEMENT_SET_NO>999</ELEMENT_SET_NO><REV_AT_EPOCH>6403</REV_AT_EPOCH><BSTAR>.17405367E-2</BSTAR><MEAN_MOTION_DOT>.63E-5</MEAN_MOTION_DOT><MEAN_MOTION_DDOT>0</MEAN_MOTION_DDOT></tleParameters></data></segment></body></omm>
<omm id="CCSDS_OMM_VERS" version="2.0">
<header><CREATION_DATE/><ORIGINATOR/></header><body><segment><metadata><OBJECT_NAME>ONEWEB-0692</OBJECT_NAME><OBJECT_ID>2024-188G</OBJECT_ID><CENTER_NAME>EARTH</CENTER_NAME><REF_FRAME>TEME</REF_FRAME><TIME_SYSTEM>UTC</TIME_SYSTEM><MEAN_ELEMENT_THEORY>SGP4</MEAN_ELEMENT_THEORY></metadata><data><meanElements><EPOCH>2026-01-12T02:42:44.887392</EPOCH><MEAN_MOTION>13.11415203</MEAN_MOTION><ECCENTRICITY>.00010937</ECCENTRICITY><INCLINATION>87.8821</INCLINATION><RA_OF_ASC_NODE>52.1632</RA_OF_ASC_NODE><ARG_OF_PERICENTER>123.1130</ARG_OF_PERICENTER><MEAN_ANOMALY>237.0103</MEAN_ANOMALY></meanElements><tleParameters><EPHEMERIS_TYPE>0</EPHEMERIS_TYPE><CLASSIFICATION_TYPE>U</CLASSIFICATION_TYPE><NORAD_CAT_ID>61600</NORAD_CAT_ID><ELEMENT_SET_NO>999</ELEMENT_SET_NO><REV_AT_EPOCH>6401</REV_AT_EPOCH><BSTAR>-.10931142E-3</BSTAR><MEAN_MOTION_DOT>-.26E-6</MEAN_MOTION_DOT><MEAN_MOTION_DDOT>0</MEAN_MOTION_DDOT></tleParameters></data></segment></body></omm>
<omm id="CCSDS_OMM_VERS" version="2.0">
<header><CREATION_DATE/><ORIGINATOR/></header><body><segment><metadata><OBJECT_NAME>ONEWEB-0693</OBJECT_NAME><OBJECT_ID>2024-188H</OBJECT_ID><CENTER_NAME>EARTH</CENTER_NAME><REF_FRAME>TEME</REF_FRAME><TIME_SYSTEM>UTC</TIME_SYSTEM><MEAN_ELEMENT_THEORY>SGP4</MEAN_ELEMENT_THEORY></metadata><data><meanElements><EPOCH>2026-01-12T03:30:57.809952</EPOCH><MEAN_MOTION>13.17647582</MEAN_MOTION><ECCENTRICITY>.00020053</ECCENTRICITY><INCLINATION>87.9079</INCLINATION><RA_OF_ASC_NODE>36.9297</RA_OF_ASC_NODE><ARG_OF_PERICENTER>68.8257</ARG_OF_PERICENTER><MEAN_ANOMALY>291.3089</MEAN_ANOMALY></meanElements><tleParameters><EPHEMERIS_TYPE>0</EPHEMERIS_TYPE><CLASSIFICATION_TYPE>U</CLASSIFICATION_TYPE><NORAD_CAT_ID>61601</NORAD_CAT_ID><ELEMENT_SET_NO>999</ELEMENT_SET_NO><REV_AT_EPOCH>6533</REV_AT_EPOCH><BSTAR>.55045818E-4</BSTAR><MEAN_MOTION_DOT>.34E-6</MEAN_MOTION_DOT><MEAN_MOTION_DDOT>0</MEAN_MOTION_DDOT></tleParameters></data></segment></body></omm>
<omm id="CCSDS_OMM_VERS" version="2.0">
<header><CREATION_DATE/><ORIGINATOR/></header><body><segment><metadata><OBJECT_NAME>ONEWEB-0695</OBJECT_NAME><OBJECT_ID>2024-188J</OBJECT_ID><CENTER_NAME>EARTH</CENTER_NAME><REF_FRAME>TEME</REF_FRAME><TIME_SYSTEM>UTC</TIME_SYSTEM><MEAN_ELEMENT_THEORY>SGP4</MEAN_ELEMENT_THEORY></metadata><data><meanElements><EPOCH>2026-01-12T03:58:27.149664</EPOCH><MEAN_MOTION>13.11418185</MEAN_MOTION><ECCENTRICITY>.00016435</ECCENTRICITY><INCLINATION>87.8826</INCLINATION><RA_OF_ASC_NODE>52.1424</RA_OF_ASC_NODE><ARG_OF_PERICENTER>114.9939</ARG_OF_PERICENTER><MEAN_ANOMALY>245.1360</MEAN_ANOMALY></meanElements><tleParameters><EPHEMERIS_TYPE>0</EPHEMERIS_TYPE><CLASSIFICATION_TYPE>U</CLASSIFICATION_TYPE><NORAD_CAT_ID>61602</NORAD_CAT_ID><ELEMENT_SET_NO>999</ELEMENT_SET_NO><REV_AT_EPOCH>6401</REV_AT_EPOCH><BSTAR>.15052632E-2</BSTAR><MEAN_MOTION_DOT>.546E-5</MEAN_MOTION_DOT><MEAN_MOTION_DDOT>0</MEAN_MOTION_DDOT></tleParameters></data></segment></body></omm>

</ndm>
