ONEWEB-0687             
1 61595U 24188B   26012.10601961  .00000048  00000+0  91564-4 0  9994
2 61595  87.9074  36.9172 0002244 105.8027 254.3352 13.17649703 65349
ONEWEB-0688             
1 61596U 24188C   26012.05876819  .00000094  00000+0  20868-3 0  9994
2 61596  87.9074  36.9266 0003099  93.1003 267.0484 13.17650399 65335
ONEWEB-0689             
1 61597U 24188D   26012.16389451  .00000548  00000+0  15098-2 0  9990
2 61597  87.8828  52.0935 0001842 107.2998 252.8332 13.11418410 64005
ONEWEB-0690             
1 61598U 24188E   26012.17407394  .00000633  00000+0  17511-2 0  9996
2 61598  87.8838  52.1104 0001678  73.5455 286.5857 13.11416277 64180
ONEWEB-0691             
1 61599U 24188F   26012.16898906  .00000630  00000+0  17405-2 0  9998
2 61599  87.8836  52.0089 0002257  97.8870 262.2514 13.11417641 64035
ONEWEB-0692             
1 61600U 24188G   26012.11301953 -.00000026  00000+0 -10931-3 0  9996
2 61600  87.8821  52.1632 0001093 123.1130 237.0103 13.11415203 64010
ONEWEB-0693             
1 61601U 24188H   26012.14650243  .00000034  00000+0  55046-4 0  9993
2 61601  87.9079  36.9297 0002005  68.8257 291.3089 13.17647582 65338
ONEWEB-0695             
1 61602U 24188J   26012.16559201  .00000546  00000+0  15053-2 0  9998
2 61602  87.8826  52.1424 0001643 114.9939 245.1360 13.11418185 64019
